C/2021 C6 (Lemmon),e,164.6045,332.3450,203.8210,3164,0.0000055,0.99896344,0.0000,11/12.3105/2021,2000,g 12.0,4.0
# From MPEC 2022-F14
C/2021 D1 (SWAN),e,31.3913,311.2243,72.3525,101.7466,0.0009603,0.99110463,0.0000,02/27.6876/2021,2000,g 13.0,4.0
# From MPEC 2023-J29
C/2021 D2 (ZTF),h,02/03.8845/2022,83.7880,305.6528,125.0376,1.001547,2.947078,2000,9.0,4.0
# From MPEC 2022-UY9
A/2021 E2,e,167.4901,190.7917,342.2869,209.5529,0.0003249,0.98910714,0.0000,12/09.7797/2020,2000,g 15.0,2.0
# From MPEC 2024-GJ3
C/2021 E3 (ZTF),h,06/11.6880/2022,112.5294,104.4835,228.8262,1.000393,1.777131,2000,8.5,4.0
# From MPEC 2024-N80
A/2021 E4,e,116.3655,171.1597,48.2676,520.1186,0.0000831,0.99100680,0.0000,04/24.9513/2022,2000,g 13.5,22.0
# From MPEC 2022-QD9
C/2021 F1 (Lemmon-PANSTARRS),e,107.3127,203.4889,146.8961,244.0823,0.0002585,0.99591156,0.0000,04/06.7612/2022,2000,g 13.5,4.0
# From MPEC 2021-J72
C/2021 G1 (Leonard),e,131.5492,270.7000,107.4356,72.04288,0.0016118,0.95245532,1.7744,07/26.0/2024,2000,g 14.0,4.0
# From MPEC 2024-O39
C/2021 G2 (ATLAS),h,09/09.2315/2024,48.4736,221.0948,343.2810,1.000177,4.982384,2000,5.5,4.0
# From MPEC 2022-X67
C/2021 G3 (PANSTARRS),e,102.8694,147.3753,10.5806,9911,0.0000010,0.99947729,0.0000,10/17.8697/2021,2000,g 10.5,4.0
# From MPEC 2021-Y10
P/2021 HS (PANSTARRS),e,12.1556,262.3625,46.1394,4.194199,0.1147441,0.80948174,124.5376,07/26.0/2024,2000,g 22.0,4.0
# From MPEC 2022-C56
C/2021 J1 (Maury-Attard),e,92.7117,88.4177,147.2634,26.28244,0.0073149,0.93388368,9.1627,07/26.0/2024,2000,g 15.5,4.0
# From MPEC 2023-XP6
C/2021 J2 (PANSTARRS),e,156.2122,23.3268,171.9371,114.4625,0.0008048,0.95892156,0.8358,07/26.0/2024,2000,g 12.0,4.0
# From MPEC 2024-F34
P/2021 J3 (ATLAS),e,14.5220,111.0838,125.7934,8.907720,0.0370727,0.44903416,68.6363,07/26.0/2024,2000,g  7.0,4.0
# From MPEC 2022-O08
C/2021 K1 (ATLAS),e,16.2731,140.9174,184.2593,12.63577,0.0219433,0.80208116,25.8833,07/26.0/2024,2000,g 11.0,4.0
# From MPEC 2022-O01
C/2021 K2 (MASTER),h,09/09.5954/2021,100.8654,282.3240,343.3314,1.000842,5.467758,2000,8.0,4.0
# From MPEC 2022-L66
C/2021 K3 (Catalina),h,02/03.9134/2022,134.7788,114.5882,182.0488,1.004478,5.231019,2000,10.0,4.0
# From MPEC 2021-W31
P/2021 L2 (Leonard),e,21.0648,266.6539,51.4852,4.048328,0.1210014,0.52075414,132.9088,07/26.0/2024,2000,g 17.0,4.0
# From MPEC 2024-H50
C/2021 L3 (Borisov),h,02/14.7613/2022,78.5594,345.0008,91.6358,1.004565,8.458911,2000,6.0,4.0
# From MPEC 2022-TA0
P/2021 N1 (ZTF),e,11.4882,301.1456,21.2384,2.978936,0.1916956,0.67589235,219.7088,07/26.0/2024,2000,g 19.0,4.0
# From MPEC 2024-GJ3
P/2021 N2 (Fuls),e,13.0611,221.7328,177.5699,6.944062,0.0538621,0.45250682,53.0369,07/26.0/2024,2000,g  9.5,4.0
# From MPEC 2022-YB4
C/2021 N3 (PANSTARRS),e,26.7519,337.5064,304.6931,144.4851,0.0005675,0.96043724,0.8161,07/26.0/2024,2000,g  8.5,4.0
# From MPEC 2022-A21
C/2021 O1 (Nishimura),e,27.5915,41.5873,74.3912,3076,0.0000058,0.99974532,0.0000,08/14.3779/2021,2000,g 10.5,4.0
# From MPEC 2022-L66
C/2021 O3 (PANSTARRS),h,04/21.1416/2022,56.8041,188.9305,299.9640,1.000043,0.285824,2000,10.5,4.0
# From MPEC 2024-F34
C/2021 P1 (PANSTARRS),e,51.6323,359.6923,40.5070,2910,0.0000063,0.99849585,0.0000,06/02.6277/2022,2000,g 11.0,4.0
# From MPEC 2024-NE4
C/2021 P2 (PANSTARRS),e,150.0620,32.0849,76.7219,6453,0.0000019,0.99921447,0.0000,01/23.0296/2023,2000,g  9.0,4.0
# From MPEC 2024-GJ3
P/2021 P3 (PANSTARRS),e,27.1609,358.2462,334.0704,4.412415,0.1063382,0.33859336,122.6737,07/26.0/2024,2000,g 14.0,4.0
# From MPEC 2023-A50
C/2021 P4 (ATLAS),e,56.3341,348.0549,175.7951,295.9632,0.0001936,0.99635323,0.0000,07/30.3456/2022,2000,g  9.5,4.0
# From MPEC 2023-E68
P/2021 PE20 (ATLAS),e,20.0005,99.6252,210.4639,3.745955,0.1359441,0.66992263,155.7529,07/26.0/2024,2000,g 17.0,4.0
# From MPEC 2023-FK0
C/2021 Q3 (ATLAS),e,77.7332,307.9141,114.1236,75.54717,0.0015010,0.93108617,1.3684,07/26.0/2024,2000,g  8.0,4.0
# From MPEC 2024-NE4
C/2021 Q4 (Fuls),h,06/11.5163/2023,71.4925,183.3269,147.0748,1.002761,7.565551,2000,6.0,4.0
# From MPEC 2022-C56
P/2021 Q5 (ATLAS),e,10.7398,239.7572,180.9390,3.286915,0.1653946,0.62466568,175.3176,07/26.0/2024,2000,g 15.0,4.0
# From MPEC 2024-NE4
C/2021 Q6 (PANSTARRS),h,03/25.1854/2024,161.8408,133.5496,141.0416,1.002057,8.707864,2000,6.0,4.0
# From MPEC 2023-FK0
C/2021 QM45 (PANSTARRS),e,22.8127,354.5974,72.8693,394.8947,0.0001256,0.99297196,0.0000,08/13.6676/2022,2000,g 11.0,4.0
# From MPEC 2022-X67
P/2021 R1 (PANSTARRS),e,5.5233,143.2146,220.2010,8.287755,0.0413094,0.41056232,39.4924,07/26.0/2024,2000,g 11.0,4.0
# From MPEC 2022-X67
C/2021 R2 (PANSTARRS),e,134.4838,16.3127,32.5170,4916,0.0000029,0.99851184,0.0000,12/27.9502/2021,2000,g  7.5,4.0
# From MPEC 2021-W31
P/2021 R3 (PANSTARRS),e,19.9342,304.1934,2.6711,3.770681,0.1346091,0.33106301,155.8543,07/26.0/2024,2000,g 16.0,4.0
# From MPEC 2021-W31
P/2021 R4 (Wierzchos),e,21.0222,321.2931,56.7320,5.625958,0.0738600,0.58571697,75.0465,07/26.0/2024,2000,g 16.0,4.0
# From MPEC 2024-JU4
P/2021 R5 (Rankin),e,7.8544,219.9548,167.5600,4.796329,0.0938298,0.30638451,86.8182,07/26.0/2024,2000,g 12.0,4.0
# From MPEC 2021-W31
P/2021 R6 (Groeller),e,34.9108,176.1608,220.8331,6.286222,0.0625345,0.59334323,62.3975,07/26.0/2024,2000,g 14.5,4.0
# From MPEC 2022-X67
C/2021 R7 (PANSTARRS),e,158.8662,170.1750,140.3316,891.4161,0.0000370,0.99365890,0.0000,04/16.7411/2021,2000,g 10.5,4.0
# From MPEC 2021-Y10
P/2021 R8 (Sheppard),e,2.2031,167.0738,190.8365,3.019332,0.1878615,0.29291681,192.1413,07/26.0/2024,2000,g 18.5,4.0
# From MPEC 2023-J29
C/2021 S1 (ATLAS),h,03/01.6405/2022,52.0493,299.8674,148.2507,1.002675,6.121523,2000,7.0,4.0
# From MPEC 2024-O39
C/2021 S3 (PANSTARRS),h,02/15.0013/2024,58.5776,215.7409,6.9746,1.009377,1.321286,2000,5.5,4.0
# From MPEC 2024-GJ3
C/2021 S4 (Tsuchinshan),e,17.4781,5.4763,72.9557,161.2905,0.0004812,0.95852400,0.0985,07/26.0/2024,2000,g  6.5,4.0
# From MPEC 2022-OB6
C/2021 T1 (Lemmon),e,140.3612,56.8445,51.5695,2077,0.0000104,0.99852632,0.0000,10/14.4739/2021,2000,g 12.5,4.0
# From MPEC 2023-A50
C/2021 T2 (Fuls),h,06/08.1084/2022,117.5359,223.2313,263.5759,1.000525,1.246255,2000,12.0,4.0
# From MPEC 2024-N80
C/2021 T4 (Lemmon),e,160.7782,257.8893,329.8110,17174,0.0000004,0.99991366,0.0000,07/31.5416/2023,2000,g  7.5,4.0
# From MPEC 2022-ED3
P/2021 U1 (Wierzchos),e,30.5519,246.7898,145.1845,8.535224,0.0395259,0.71295413,40.6680,07/26.0/2024,2000,g 14.5,4.0
# From MPEC 2022-L66
P/2021 U3 (Attard-Maury),e,69.9625,75.0940,335.2889,4.195511,0.1146903,0.54972734,115.2738,07/26.0/2024,2000,g 15.5,4.0
# From MPEC 2021-W31
C/2021 U4 (Leonard),e,152.8895,241.8085,237.3363,45.29487,0.0032332,0.96050645,3.0613,07/26.0/2024,2000,g 17.0,4.0
# From MPEC 2022-WQ9
C/2021 U5 (Catalina),e,39.0437,182.7240,321.4284,218.4522,0.0003053,0.98919629,0.0000,01/26.7291/2022,2000,g 13.0,4.0
# From MPEC 2022-CN4
C/2021 V1 (Rankin),e,71.4503,207.6754,195.1817,686.2744,0.0000548,0.99560421,0.0000,04/30.6017/2022,2000,g 13.0,4.0
# From MPEC 2024-JU4
P/2021 V2 (Fuls),e,12.6948,232.2757,259.8630,9.078793,0.0360298,0.61485533,19.8652,07/26.0/2024,2000,g 10.0,4.0
# From MPEC 2024-O39
C/2021 X1 (Maury-Attard),h,05/27.1586/2023,140.1001,10.5949,334.5742,1.000286,3.233704,2000,7.0,4.0
# From MPEC 2024-E08
C/2021 X2 (Bok),h,07/08.1592/2022,137.1604,228.8257,193.3340,1.001078,2.996443,2000,13.0,4.0
# From MPEC 2024-GJ3
C/2021 Y1 (ATLAS),h,04/30.7846/2023,77.1946,244.7669,245.8377,1.001273,2.032569,2000,7.0,4.0
# From MPEC 2022-YN2
C/2022 A1 (Sarneczky),e,116.5463,285.5035,201.2507,355.4747,0.0001471,0.99647047,0.0000,01/31.0489/2022,2000,g 18.0,4.0
# From MPEC 2024-NE4
C/2022 A2 (PANSTARRS),h,02/18.2120/2023,108.1385,171.5857,88.3681,1.000205,1.735511,2000,9.5,4.0
# From MPEC 2024-O39
C/2022 A3 (Lemmon-ATLAS),e,88.3415,325.4704,234.8549,858.9729,0.0000392,0.99568816,0.0000,09/28.8832/2023,2000,g  8.0,4.0
# From MPEC 2022-K19
P/2022 B1 (Wierzchos),e,10.9911,325.4195,148.8840,5.467605,0.0770918,0.65345407,67.9455,07/26.0/2024,2000,g 16.5,4.0
# From MPEC 2022-YB4
A/2022 B3,e,132.0533,286.1866,150.6955,674.2488,0.0000563,0.99451108,0.0000,01/17.0654/2022,2000,g 16.5,2.0
# From MPEC 2022-GA9
C/2022 B4 (Bok),e,20.0488,340.5832,152.9627,388.7145,0.0001286,0.99645812,0.0000,01/30.1324/2022,2000,g 21.0,4.0
# From MPEC 2023-J29
P/2022 BV9 (Lemmon),e,11.9280,337.3108,16.3246,4.363909,0.1081161,0.23407857,148.2756,07/26.0/2024,2000,g  9.5,4.0
# From MPEC 2023-J29
P/2022 C1 (PANSTARRS),e,4.7625,113.1124,9.3864,7.229020,0.0507090,0.44885112,50.4127,07/26.0/2024,2000,g 12.0,4.0
# From MPEC 2023-VM5
P/2022 C2 (PANSTARRS),e,9.9834,135.2608,89.1985,6.035653,0.0664688,0.44184237,47.8593,07/26.0/2024,2000,g 12.5,4.0
# From MPEC 2023-UR6
P/2022 C3 (PANSTARRS),e,12.8216,139.0404,93.8584,9.620886,0.0330279,0.54550294,24.9876,07/26.0/2024,2000,g 11.5,4.0
# From MPEC 2022-K19
P/2022 D1 (PANSTARRS),e,44.0766,47.9577,88.6548,7.403838,0.0489236,0.54766715,51.9910,07/26.0/2024,2000,g 12.5,4.0
# From MPEC 2022-K19
C/2022 D2 (Kowalski),e,22.6672,312.4005,177.8110,379.1949,0.0001335,0.99590432,0.0000,03/27.7732/2022,2000,g 17.0,4.0
# From MPEC 2022-L66
P/2022 E1 (Christensen),e,19.0071,113.3447,114.9820,3.778751,0.1341781,0.22061616,104.2672,07/26.0/2024,2000,g 13.5,4.0
# From MPEC 2024-JU4
C/2022 E2 (ATLAS),h,09/14.1253/2024,137.1284,125.3724,41.7214,1.000967,3.666278,2000,5.0,4.0
# From MPEC 2024-GJ3
C/2022 E3 (ZTF),h,01/12.6863/2023,109.1690,302.5412,145.8095,1.000034,1.112647,2000,7.5,4.0
# From MPEC 2024-NE4
C/2022 F1 (ATLAS),e,57.9889,350.6404,278.2934,3979,0.0000039,0.99849813,0.0000,08/05.1829/2022,2000,g  7.0,4.0
# From MPEC 2022-QD9
C/2022 F2 (NEOWISE),e,97.3138,58.7832,200.6200,23.92419,0.0084226,0.93357872,7.2100,07/26.0/2024,2000,g 14.5,4.0
# From MPEC 2024-JU4
C/2022 H1 (PANSTARRS),e,49.8604,6.3476,246.3019,885.3201,0.0000374,0.99131412,0.0000,01/19.0193/2024,2000,g  6.0,4.0
# From MPEC 2022-VC5
C/2022 J1 (Maury-Attard),e,105.9551,280.7784,305.6529,47.59703,0.0030015,0.96632214,2.6649,07/26.0/2024,2000,g 14.9,4.0
# From MPEC 2023-M14
